{
  "norad_id": 63679,
  "name": "STARLINK-33850",
  "history": [
    {
      "epoch": "2026-03-28T22:25:43.365216Z",
      "apogee_km": 484.3661526593414,
      "perigee_km": 481.5297801342331,
      "latitude_deg": 9.6590720745815e-06,
      "longitude_deg": 119.418371465169,
      "height_km": 482.69686195382246,
      "semi_major_axis_km": 6861.084966396787,
      "eccentricity": 0.0002067,
      "inclination_deg": 43.0043,
      "raan_deg": 282.1969,
      "arg_perigee_deg": 271.1639,
      "mean_anomaly_deg": 88.8976,
      "mean_motion_rev_day": 15.27613774
    },
    {
      "epoch": "2026-03-29T21:58:03.804384Z",
      "apogee_km": 484.2927561055276,
      "perigee_km": 481.610344925818,
      "latitude_deg": 2.3370515929787623e-05,
      "longitude_deg": 119.82651050058075,
      "height_km": 482.7100658080369,
      "semi_major_axis_km": 6861.088550515673,
      "eccentricity": 0.00019548,
      "inclination_deg": 43.0023,
      "raan_deg": 276.6569,
      "arg_perigee_deg": 270.8065,
      "mean_anomaly_deg": 89.2563,
      "mean_motion_rev_day": 15.27612577
    },
    {
      "epoch": "2026-03-30T13:39:38.220768Z",
      "apogee_km": 484.2577567168282,
      "perigee_km": 481.89818488836954,
      "latitude_deg": 2.9636148472473145e-05,
      "longitude_deg": -119.90196794835452,
      "height_km": 482.8610703023847,
      "semi_major_axis_km": 6861.214970802599,
      "eccentricity": 0.00017195,
      "inclination_deg": 43.0008,
      "raan_deg": 272.9663,
      "arg_perigee_deg": 269.706,
      "mean_anomaly_deg": 90.3595,
      "mean_motion_rev_day": 15.27570357
    },
    {
      "epoch": "2026-03-31T13:11:59.242272Z",
      "apogee_km": 483.89581373197507,
      "perigee_km": 482.11438679706225,
      "latitude_deg": 6.908409998550277e-06,
      "longitude_deg": -119.5000999846795,
      "height_km": 483.17115078320165,
      "semi_major_axis_km": 6861.142100264518,
      "eccentricity": 0.00012982,
      "inclination_deg": 42.9998,
      "raan_deg": 267.4225,
      "arg_perigee_deg": 244.06,
      "mean_anomaly_deg": 116.0118,
      "mean_motion_rev_day": 15.27594693
    },
    {
      "epoch": "2026-04-01T12:44:20.189472Z",
      "apogee_km": 484.0529074161859,
      "perigee_km": 481.9314462747061,
      "latitude_deg": -2.20970860952679e-05,
      "longitude_deg": -119.09172825020288,
      "height_km": 482.9199545406154,
      "semi_major_axis_km": 6861.129176845446,
      "eccentricity": 0.0001546,
      "inclination_deg": 43.0034,
      "raan_deg": 261.8849,
      "arg_perigee_deg": 261.8371,
      "mean_anomaly_deg": 98.2305,
      "mean_motion_rev_day": 15.27599009
    },
    {
      "epoch": "2026-04-02T10:42:31.579776Z",
      "apogee_km": 483.7776637686211,
      "perigee_km": 482.1669497477669,
      "latitude_deg": -1.3715476637645891e-05,
      "longitude_deg": -94.71354690829133,
      "height_km": 482.88986566806955,
      "semi_major_axis_km": 6861.109306758193,
      "eccentricity": 0.00011738,
      "inclination_deg": 42.9996,
      "raan_deg": 256.7128,
      "arg_perigee_deg": 259.9075,
      "mean_anomaly_deg": 100.1644,
      "mean_motion_rev_day": 15.27605645
    },
    {
      "epoch": "2026-04-02T21:41:36.552192Z",
      "apogee_km": 483.9383488077201,
      "perigee_km": 481.8819557552388,
      "latitude_deg": -2.2667488813471703e-05,
      "longitude_deg": 97.48229926984081,
      "height_km": 482.5145067398651,
      "semi_major_axis_km": 6861.047152281479,
      "eccentricity": 0.00014986,
      "inclination_deg": 43.0024,
      "raan_deg": 254.1305,
      "arg_perigee_deg": 279.6695,
      "mean_anomaly_deg": 80.3987,
      "mean_motion_rev_day": 15.27626403
    },
    {
      "epoch": "2026-04-03T10:14:51.502272Z",
      "apogee_km": 483.816903992034,
      "perigee_km": 482.14814250158906,
      "latitude_deg": -1.9551109467161175e-06,
      "longitude_deg": -94.30315134381267,
      "height_km": 483.4510379065969,
      "semi_major_axis_km": 6861.119523246811,
      "eccentricity": 0.00012161,
      "inclination_deg": 42.9993,
      "raan_deg": 251.1729,
      "arg_perigee_deg": 213.8904,
      "mean_anomaly_deg": 146.187,
      "mean_motion_rev_day": 15.27602233
    },
    {
      "epoch": "2026-04-04T19:12:08.601120Z",
      "apogee_km": 484.24990812961096,
      "perigee_km": 481.963741687151,
      "latitude_deg": 4.644067164677264e-06,
      "longitude_deg": 122.27370621176279,
      "height_km": 482.9377482636048,
      "semi_major_axis_km": 6861.243824908381,
      "eccentricity": 0.0001666,
      "inclination_deg": 43.002,
      "raan_deg": 243.4244,
      "arg_perigee_deg": 267.3028,
      "mean_anomaly_deg": 92.7633,
      "mean_motion_rev_day": 15.27560721
    },
    {
      "epoch": "2026-04-05T10:53:43.980864Z",
      "apogee_km": 484.1150614570979,
      "perigee_km": 482.1294130338383,
      "latitude_deg": 7.055963049168418e-06,
      "longitude_deg": -117.46460304228279,
      "height_km": 483.2549586172766,
      "semi_major_axis_km": 6861.259237245467,
      "eccentricity": 0.0001447,
      "inclination_deg": 43.0025,
      "raan_deg": 239.728,
      "arg_perigee_deg": 248.9979,
      "mean_anomaly_deg": 111.0718,
      "mean_motion_rev_day": 15.27555574
    },
    {
      "epoch": "2026-04-07T09:58:25.234176Z",
      "apogee_km": 484.0473284447935,
      "perigee_km": 481.94439122325366,
      "latitude_deg": -2.20787022249077e-05,
      "longitude_deg": -116.64595751796249,
      "height_km": 483.0506381432633,
      "semi_major_axis_km": 6861.132859834023,
      "eccentricity": 0.00015325,
      "inclination_deg": 43.0024,
      "raan_deg": 228.652,
      "arg_perigee_deg": 254.6814,
      "mean_anomaly_deg": 105.3868,
      "mean_motion_rev_day": 15.27597779
    },
    {
      "epoch": "2026-04-08T09:30:46.027584Z",
      "apogee_km": 483.6772160964101,
      "perigee_km": 482.47650367093047,
      "latitude_deg": 8.977737057902806e-06,
      "longitude_deg": -116.24218340404089,
      "height_km": 483.0315819424779,
      "semi_major_axis_km": 6861.21385988367,
      "eccentricity": 8.75e-05,
      "inclination_deg": 42.9973,
      "raan_deg": 223.1091,
      "arg_perigee_deg": 252.6695,
      "mean_anomaly_deg": 107.4061,
      "mean_motion_rev_day": 15.27570728
    },
    {
      "epoch": "2026-04-09T07:28:57.760032Z",
      "apogee_km": 483.6731116089695,
      "perigee_km": 482.3720985246573,
      "latitude_deg": -1.0182370531464582e-05,
      "longitude_deg": -91.86056459585856,
      "height_km": 482.8372887991747,
      "semi_major_axis_km": 6861.159605066813,
      "eccentricity": 9.481e-05,
      "inclination_deg": 42.9998,
      "raan_deg": 217.9419,
      "arg_perigee_deg": 266.6159,
      "mean_anomaly_deg": 93.4584,
      "mean_motion_rev_day": 15.27588847
    },
    {
      "epoch": "2026-04-11T08:07:48.038880Z",
      "apogee_km": 484.2184824402575,
      "perigee_km": 481.7100638148022,
      "latitude_deg": 3.175773210665509e-05,
      "longitude_deg": -115.01149359285574,
      "height_km": 482.2992853793517,
      "semi_major_axis_km": 6861.10127312753,
      "eccentricity": 0.0001828,
      "inclination_deg": 43.0022,
      "raan_deg": 206.4983,
      "arg_perigee_deg": 290.6468,
      "mean_anomaly_deg": 69.4188,
      "mean_motion_rev_day": 15.27608328
    },
    {
      "epoch": "2026-04-13T07:12:30.119904Z",
      "apogee_km": 483.8345670783283,
      "perigee_km": 482.25100678350464,
      "latitude_deg": -2.2133988466839463e-05,
      "longitude_deg": -114.20172939810399,
      "height_km": 482.914430940432,
      "semi_major_axis_km": 6861.179786930916,
      "eccentricity": 0.0001154,
      "inclination_deg": 42.9991,
      "raan_deg": 195.4169,
      "arg_perigee_deg": 263.0893,
      "mean_anomaly_deg": 96.9827,
      "mean_motion_rev_day": 15.27582107
    },
    {
      "epoch": "2026-04-14T16:09:47.464128Z",
      "apogee_km": 483.8121391316781,
      "perigee_km": 482.28072298986535,
      "latitude_deg": 5.1928231174822376e-05,
      "longitude_deg": 102.36867713272483,
      "height_km": 482.75457014745587,
      "semi_major_axis_km": 6861.183431060771,
      "eccentricity": 0.0001116,
      "inclination_deg": 43.002,
      "raan_deg": 187.6629,
      "arg_perigee_deg": 275.1359,
      "mean_anomaly_deg": 84.9366,
      "mean_motion_rev_day": 15.2758089
    },
    {
      "epoch": "2026-04-15T12:33:49.267296Z",
      "apogee_km": 483.92332043774604,
      "perigee_km": 482.10662461846005,
      "latitude_deg": -1.1328501957429771e-05,
      "longitude_deg": 150.7219792173583,
      "height_km": 482.7375708606336,
      "semi_major_axis_km": 6861.151972528102,
      "eccentricity": 0.00013239,
      "inclination_deg": 43.0009,
      "raan_deg": 182.8616,
      "arg_perigee_deg": 273.4174,
      "mean_anomaly_deg": 86.6526,
      "mean_motion_rev_day": 15.27591396
    },
    {
      "epoch": "2026-04-16T12:06:09.976032Z",
      "apogee_km": 484.58967269793993,
      "perigee_km": 481.4568669187447,
      "latitude_deg": 3.4033367635154235e-06,
      "longitude_deg": 151.1243945337157,
      "height_km": 482.0826351825174,
      "semi_major_axis_km": 6861.160269808342,
      "eccentricity": 0.0002283,
      "inclination_deg": 43.0001,
      "raan_deg": 177.317,
      "arg_perigee_deg": 297.2799,
      "mean_anomaly_deg": 62.782,
      "mean_motion_rev_day": 15.27588625
    },
    {
      "epoch": "2026-04-17T21:03:27.081792Z",
      "apogee_km": 484.8077667138359,
      "perigee_km": 481.1889294858347,
      "latitude_deg": -5.364372632387266e-06,
      "longitude_deg": 7.700909579120445,
      "height_km": 482.27613042735885,
      "semi_major_axis_km": 6861.135348099835,
      "eccentricity": 0.00026372,
      "inclination_deg": 43.0004,
      "raan_deg": 169.5682,
      "arg_perigee_deg": 286.0376,
      "mean_anomaly_deg": 74.0185,
      "mean_motion_rev_day": 15.27596948
    }
  ]
}